[
  {
    "COMMENT": "GENERATED VIA SPACETRACK.ORG API",
    "ORIGINATOR": "18 SPCS",
    "NORAD_CAT_ID": "43437",
    "OBJECT_NAME": "SENTINEL 3B",
    "OBJECT_TYPE": "PAYLOAD",
    "CLASSIFICATION_TYPE": "U",
    "INTLDES": "18039A",
    "EPOCH": "2023-04-01 04:43:39",
    "EPOCH_MICROSECONDS": "39168",
    "MEAN_MOTION": "14.26741025",
    "ECCENTRICITY": "0.0001446",
    "INCLINATION": "98.6186",
    "RA_OF_ASC_NODE": "159.3721",
    "ARG_OF_PERICENTER": "102.0245",
    "MEAN_ANOMALY": "258.1097",
    "EPHEMERIS_TYPE": "0",
    "ELEMENT_SET_NO": "999",
    "REV_AT_EPOCH": "25686",
    "BSTAR": "0.00015538",
    "MEAN_MOTION_DOT": "0.00000333",
    "MEAN_MOTION_DDOT": "0",
    "FILE": "3877086",
    "TLE_LINE0": "0 SENTINEL 3B",
    "TLE_LINE1": "1 43437U 18039A   23091.19697962  .00000333  00000-0  15538-3 0  9990",
    "TLE_LINE2": "2 43437  98.6186 159.3721 0001446 102.0245 258.1097 14.26741025256869",
    "OBJECT_ID": "2018-039A",
    "OBJECT_NUMBER": "43437",
    "SEMIMAJOR_AXIS": "7180.782",
    "PERIOD": "100.929",
    "APOGEE": "803.685",
    "PERIGEE": "801.609",
    "DECAYED": "0"
  },
  {
    "COMMENT": "GENERATED VIA SPACETRACK.ORG API",
    "ORIGINATOR": "18 SPCS",
    "NORAD_CAT_ID": "43437",
    "OBJECT_NAME": "SENTINEL 3B",
    "OBJECT_TYPE": "PAYLOAD",
    "CLASSIFICATION_TYPE": "U",
    "INTLDES": "18039A",
    "EPOCH": "2023-04-01 04:43:39",
    "EPOCH_MICROSECONDS": "39168",
    "MEAN_MOTION": "14.26741025",
    "ECCENTRICITY": "0.0001446",
    "INCLINATION": "98.6186",
    "RA_OF_ASC_NODE": "159.3721",
    "ARG_OF_PERICENTER": "102.0245",
    "MEAN_ANOMALY": "258.1097",
    "EPHEMERIS_TYPE": "0",
    "ELEMENT_SET_NO": "999",
    "REV_AT_EPOCH": "25686",
    "BSTAR": "0.00015538",
    "MEAN_MOTION_DOT": "0.00000333",
    "MEAN_MOTION_DDOT": "0",
    "FILE": "3877270",
    "TLE_LINE0": "0 SENTINEL 3B",
    "TLE_LINE1": "1 43437U 18039A   23091.19697962  .00000333  00000-0  15538-3 0  9990",
    "TLE_LINE2": "2 43437  98.6186 159.3721 0001446 102.0245 258.1097 14.26741025256869",
    "OBJECT_ID": "2018-039A",
    "OBJECT_NUMBER": "43437",
    "SEMIMAJOR_AXIS": "7180.782",
    "PERIOD": "100.929",
    "APOGEE": "803.685",
    "PERIGEE": "801.609",
    "DECAYED": "0"
  },
  {
    "COMMENT": "GENERATED VIA SPACETRACK.ORG API",
    "ORIGINATOR": "18 SPCS",
    "NORAD_CAT_ID": "43437",
    "OBJECT_NAME": "SENTINEL 3B",
    "OBJECT_TYPE": "PAYLOAD",
    "CLASSIFICATION_TYPE": "U",
    "INTLDES": "18039A",
    "EPOCH": "2023-04-01 21:33:31",
    "EPOCH_MICROSECONDS": "84416",
    "MEAN_MOTION": "14.26741311",
    "ECCENTRICITY": "0.0001447",
    "INCLINATION": "98.6185",
    "RA_OF_ASC_NODE": "160.0628",
    "ARG_OF_PERICENTER": "101.4745",
    "MEAN_ANOMALY": "258.6598",
    "EPHEMERIS_TYPE": "0",
    "ELEMENT_SET_NO": "999",
    "REV_AT_EPOCH": "25696",
    "BSTAR": "0.00014344",
    "MEAN_MOTION_DOT": "0.00000304",
    "MEAN_MOTION_DDOT": "0",
    "FILE": "3877516",
    "TLE_LINE0": "0 SENTINEL 3B",
    "TLE_LINE1": "1 43437U 18039A   23091.89827644  .00000304  00000-0  14344-3 0  9991",
    "TLE_LINE2": "2 43437  98.6185 160.0628 0001447 101.4745 258.6598 14.26741311256962",
    "OBJECT_ID": "2018-039A",
    "OBJECT_NUMBER": "43437",
    "SEMIMAJOR_AXIS": "7180.781",
    "PERIOD": "100.929",
    "APOGEE": "803.685",
    "PERIGEE": "801.607",
    "DECAYED": "0"
  },
  {
    "COMMENT": "GENERATED VIA SPACETRACK.ORG API",
    "ORIGINATOR": "18 SPCS",
    "NORAD_CAT_ID": "43437",
    "OBJECT_NAME": "SENTINEL 3B",
    "OBJECT_TYPE": "PAYLOAD",
    "CLASSIFICATION_TYPE": "U",
    "INTLDES": "18039A",
    "EPOCH": "2023-04-02 14:23:23",
    "EPOCH_MICROSECONDS": "109792",
    "MEAN_MOTION": "14.2674171",
    "ECCENTRICITY": "0.0001461",
    "INCLINATION": "98.6184",
    "RA_OF_ASC_NODE": "160.7536",
    "ARG_OF_PERICENTER": "101.0661",
    "MEAN_ANOMALY": "259.0684",
    "EPHEMERIS_TYPE": "0",
    "ELEMENT_SET_NO": "999",
    "REV_AT_EPOCH": "25706",
    "BSTAR": "0.00013639",
    "MEAN_MOTION_DOT": "0.00000287",
    "MEAN_MOTION_DDOT": "0",
    "FILE": "3878126",
    "TLE_LINE0": "0 SENTINEL 3B",
    "TLE_LINE1": "1 43437U 18039A   23092.59957303  .00000287  00000-0  13639-3 0  9991",
    "TLE_LINE2": "2 43437  98.6184 160.7536 0001461 101.0661 259.0684 14.26741710257061",
    "OBJECT_ID": "2018-039A",
    "OBJECT_NUMBER": "43437",
    "SEMIMAJOR_AXIS": "7180.780",
    "PERIOD": "100.929",
    "APOGEE": "803.694",
    "PERIGEE": "801.596",
    "DECAYED": "0"
  },
  {
    "COMMENT": "GENERATED VIA SPACETRACK.ORG API",
    "ORIGINATOR": "18 SPCS",
    "NORAD_CAT_ID": "43437",
    "OBJECT_NAME": "SENTINEL 3B",
    "OBJECT_TYPE": "PAYLOAD",
    "CLASSIFICATION_TYPE": "U",
    "INTLDES": "18039A",
    "EPOCH": "2023-04-02 19:26:20",
    "EPOCH_MICROSECONDS": "715072",
    "MEAN_MOTION": "14.2674174",
    "ECCENTRICITY": "0.0001466",
    "INCLINATION": "98.6183",
    "RA_OF_ASC_NODE": "160.9608",
    "ARG_OF_PERICENTER": "100.7999",
    "MEAN_ANOMALY": "259.3347",
    "EPHEMERIS_TYPE": "0",
    "ELEMENT_SET_NO": "999",
    "REV_AT_EPOCH": "25709",
    "BSTAR": "0.00012878",
    "MEAN_MOTION_DOT": "0.00000268",
    "MEAN_MOTION_DDOT": "0",
    "FILE": "3878252",
    "TLE_LINE0": "0 SENTINEL 3B",
    "TLE_LINE1": "1 43437U 18039A   23092.80996198  .00000268  00000-0  12878-3 0  9993",
    "TLE_LINE2": "2 43437  98.6183 160.9608 0001466 100.7999 259.3347 14.26741740257092",
    "OBJECT_ID": "2018-039A",
    "OBJECT_NUMBER": "43437",
    "SEMIMAJOR_AXIS": "7180.780",
    "PERIOD": "100.929",
    "APOGEE": "803.697",
    "PERIGEE": "801.592",
    "DECAYED": "0"
  },
  {
    "COMMENT": "GENERATED VIA SPACETRACK.ORG API",
    "ORIGINATOR": "18 SPCS",
    "NORAD_CAT_ID": "43437",
    "OBJECT_NAME": "SENTINEL 3B",
    "OBJECT_TYPE": "PAYLOAD",
    "CLASSIFICATION_TYPE": "U",
    "INTLDES": "18039A",
    "EPOCH": "2023-04-02 19:26:20",
    "EPOCH_MICROSECONDS": "715072",
    "MEAN_MOTION": "14.2674174",
    "ECCENTRICITY": "0.0001466",
    "INCLINATION": "98.6183",
    "RA_OF_ASC_NODE": "160.9608",
    "ARG_OF_PERICENTER": "100.7999",
    "MEAN_ANOMALY": "259.3347",
    "EPHEMERIS_TYPE": "0",
    "ELEMENT_SET_NO": "999",
    "REV_AT_EPOCH": "25709",
    "BSTAR": "0.00012878",
    "MEAN_MOTION_DOT": "0.00000268",
    "MEAN_MOTION_DDOT": "0",
    "FILE": "3878419",
    "TLE_LINE0": "0 SENTINEL 3B",
    "TLE_LINE1": "1 43437U 18039A   23092.80996198  .00000268  00000-0  12878-3 0  9993",
    "TLE_LINE2": "2 43437  98.6183 160.9608 0001466 100.7999 259.3347 14.26741740257092",
    "OBJECT_ID": "2018-039A",
    "OBJECT_NUMBER": "43437",
    "SEMIMAJOR_AXIS": "7180.780",
    "PERIOD": "100.929",
    "APOGEE": "803.697",
    "PERIGEE": "801.592",
    "DECAYED": "0"
  },
  {
    "COMMENT": "GENERATED VIA SPACETRACK.ORG API",
    "ORIGINATOR": "18 SPCS",
    "NORAD_CAT_ID": "43437",
    "OBJECT_NAME": "SENTINEL 3B",
    "OBJECT_TYPE": "PAYLOAD",
    "CLASSIFICATION_TYPE": "U",
    "INTLDES": "18039A",
    "EPOCH": "2023-04-03 03:51:16",
    "EPOCH_MICROSECONDS": "711776",
    "MEAN_MOTION": "14.26742023",
    "ECCENTRICITY": "0.0001465",
    "INCLINATION": "98.6183",
    "RA_OF_ASC_NODE": "161.3062",
    "ARG_OF_PERICENTER": "100.8465",
    "MEAN_ANOMALY": "259.288",
    "EPHEMERIS_TYPE": "0",
    "ELEMENT_SET_NO": "999",
    "REV_AT_EPOCH": "25714",
    "BSTAR": "0.0001312",
    "MEAN_MOTION_DOT": "0.00000274",
    "MEAN_MOTION_DDOT": "0",
    "FILE": "3879059",
    "TLE_LINE0": "0 SENTINEL 3B",
    "TLE_LINE1": "1 43437U 18039A   23093.16061009  .00000274  00000-0  13120-3 0  9995",
    "TLE_LINE2": "2 43437  98.6183 161.3062 0001465 100.8465 259.2880 14.26742023257141",
    "OBJECT_ID": "2018-039A",
    "OBJECT_NUMBER": "43437",
    "SEMIMAJOR_AXIS": "7180.779",
    "PERIOD": "100.929",
    "APOGEE": "803.696",
    "PERIGEE": "801.592",
    "DECAYED": "0"
  },
  {
    "COMMENT": "GENERATED VIA SPACETRACK.ORG API",
    "ORIGINATOR": "18 SPCS",
    "NORAD_CAT_ID": "43437",
    "OBJECT_NAME": "SENTINEL 3B",
    "OBJECT_TYPE": "PAYLOAD",
    "CLASSIFICATION_TYPE": "U",
    "INTLDES": "18039A",
    "EPOCH": "2023-04-04 03:25:05",
    "EPOCH_MICROSECONDS": "481120",
    "MEAN_MOTION": "14.26742646",
    "ECCENTRICITY": "0.0001466",
    "INCLINATION": "98.6182",
    "RA_OF_ASC_NODE": "162.2733",
    "ARG_OF_PERICENTER": "100.488",
    "MEAN_ANOMALY": "259.6466",
    "EPHEMERIS_TYPE": "0",
    "ELEMENT_SET_NO": "999",
    "REV_AT_EPOCH": "25728",
    "BSTAR": "0.00012652",
    "MEAN_MOTION_DOT": "0.00000263",
    "MEAN_MOTION_DDOT": "0",
    "FILE": "3879472",
    "TLE_LINE0": "0 SENTINEL 3B",
    "TLE_LINE1": "1 43437U 18039A   23094.14242455  .00000263  00000-0  12652-3 0  9997",
    "TLE_LINE2": "2 43437  98.6182 162.2733 0001466 100.4880 259.6466 14.26742646257283",
    "OBJECT_ID": "2018-039A",
    "OBJECT_NUMBER": "43437",
    "SEMIMAJOR_AXIS": "7180.777",
    "PERIOD": "100.929",
    "APOGEE": "803.694",
    "PERIGEE": "801.589",
    "DECAYED": "0"
  }
]